HIMAWARI-8              
1 40267U 14060A   23314.43419543 -.00000256  00000+0  00000+0 0  9998
2 40267   0.0164 113.9903 0000925  97.2784 135.0404  1.00269036 33348
